[{"OBJECT_NAME":"ICEYE-X64","OBJECT_ID":"2026-004L","EPOCH":"2026-03-09T22:08:51.177984","MEAN_MOTION":14.87676909,"ECCENTRICITY":0.00074629,"INCLINATION":97.8018,"RA_OF_ASC_NODE":69.1111,"ARG_OF_PERICENTER":100.9469,"MEAN_ANOMALY":259.2588,"EPHEMERIS_TYPE":0,"CLASSIFICATION_TYPE":"U","NORAD_CAT_ID":67373,"ELEMENT_SET_NO":999,"REV_AT_EPOCH":853,"BSTAR":0.00035385661,"MEAN_MOTION_DOT":3.169e-5,"MEAN_MOTION_DDOT":0},{"OBJECT_NAME":"CZ-4C DEB","OBJECT_ID":"2013-037E","EPOCH":"2026-03-09T22:20:01.407840","MEAN_MOTION":14.90003694,"ECCENTRICITY":0.0002744,"INCLINATION":97.9498,"RA_OF_ASC_NODE":84.484,"ARG_OF_PERICENTER":336.6157,"MEAN_ANOMALY":23.4936,"EPHEMERIS_TYPE":0,"CLASSIFICATION_TYPE":"U","NORAD_CAT_ID":39212,"ELEMENT_SET_NO":999,"REV_AT_EPOCH":68005,"BSTAR":0.00061420744,"MEAN_MOTION_DOT":5.869e-5,"MEAN_MOTION_DDOT":0}]
